{"type": "FeatureCollection", "features": [ {"type": "Feature", "properties": {"norad_id": 66915, "name": "HULIANWANG DIGUI-105", "group": "last-30-days", "lat": 46.85995310705345, "lon": -130.0527701506203, "alt_km": 880.1704414256983, "timestamp": "2025-12-13T15:35:10.878806+00:00", "meta": {"OBJECT_NAME": "HULIANWANG DIGUI-105", "OBJECT_ID": "2025-285A", "EPOCH": "2025-12-12T21:59:21.447744", "MEAN_MOTION": 14.03715288, "ECCENTRICITY": 0.0007935, "INCLINATION": 50.004, "RA_OF_ASC_NODE": 116.5531, "ARG_OF_PERICENTER": 283.8559, "MEAN_ANOMALY": 76.1462, "EPHEMERIS_TYPE": 0, "CLASSIFICATION_TYPE": "U", "NORAD_CAT_ID": 66915, "ELEMENT_SET_NO": 999, "REV_AT_EPOCH": 93, "BSTAR": 0.00019734694, "MEAN_MOTION_DOT": 1.61e-06, "MEAN_MOTION_DDOT": 0}, "tle": {"line1": "1 66915U 25285A   25346.91622046  .00000161  00000+0  19735-3 0  9994", "line2": "2 66915  50.0040 116.5531 0007935 283.8559  76.1462 14.03715288   931"}}, "geometry": {"type": "Point", "coordinates": [-130.0527701506203, 46.85995310705345]}}, {"type": "Feature", "properties": {"norad_id": 66916, "name": "HULIANWANG DIGUI-106", "group": "last-30-days", "lat": 41.998670523150615, "lon": -115.55189743181523, "alt_km": 873.7150194699798, "timestamp": "2025-12-13T15:35:10.878816+00:00", "meta": {"OBJECT_NAME": "HULIANWANG DIGUI-106", "OBJECT_ID": "2025-285B", "EPOCH": "2025-12-12T21:57:27.621792", "MEAN_MOTION": 14.05514799, "ECCENTRICITY": 0.00069719, "INCLINATION": 50.0049, "RA_OF_ASC_NODE": 116.5476, "ARG_OF_PERICENTER": 277.9821, "MEAN_ANOMALY": 82.0293, "EPHEMERIS_TYPE": 0, "CLASSIFICATION_TYPE": "U", "NORAD_CAT_ID": 66916, "ELEMENT_SET_NO": 999, "REV_AT_EPOCH": 93, "BSTAR": 0.00017985608, "MEAN_MOTION_DOT": 1.42e-06, "MEAN_MOTION_DDOT": 0}, "tle": {"line1": "1 66916U 25285B   25346.91490303  .00000142  00000+0  17986-3 0  9999", "line2": "2 66916  50.0049 116.5476 0006971 277.9821  82.0293 14.05514799   938"}}, "geometry": {"type": "Point", "coordinates": [-115.55189743181523, 41.998670523150615]}}, {"type": "Feature", "properties": {"norad_id": 66917, "name": "HULIANWANG DIGUI-107", "group": "last-30-days", "lat": 41.06568789339708, "lon": -113.47564491192027, "alt_km": 874.1865294843519, "timestamp": "2025-12-13T15:35:10.878825+00:00", "meta": {"OBJECT_NAME": "HULIANWANG DIGUI-107", "OBJECT_ID": "2025-285C", "EPOCH": "2025-12-12T23:39:22.477248", "MEAN_MOTION": 14.05580431, "ECCENTRICITY": 0.00075586, "INCLINATION": 50.0015, "RA_OF_ASC_NODE": 116.2514, "ARG_OF_PERICENTER": 285.9519, "MEAN_ANOMALY": 74.0553, "EPHEMERIS_TYPE": 0, "CLASSIFICATION_TYPE": "U", "NORAD_CAT_ID": 66917, "ELEMENT_SET_NO": 999, "REV_AT_EPOCH": 94, "BSTAR": 1.167066e-05, "MEAN_MOTION_DOT": -1.33e-06, "MEAN_MOTION_DDOT": 0}, "tle": {"line1": "1 66917U 25285C   25346.98567682 -.00000133  00000+0  11671-4 0  9999", "line2": "2 66917  50.0015 116.2514 0007558 285.9519  74.0553 14.05580431   944"}}, "geometry": {"type": "Point", "coordinates": [-113.47564491192027, 41.06568789339708]}}, {"type": "Feature", "properties": {"norad_id": 66918, "name": "HULIANWANG DIGUI-108", "group": "last-30-days", "lat": 39.32743663323384, "lon": -109.92143977842282, "alt_km": 873.0592089305046, "timestamp": "2025-12-13T15:35:10.878835+00:00", "meta": {"OBJECT_NAME": "HULIANWANG DIGUI-108", "OBJECT_ID": "2025-285D", "EPOCH": "2025-12-12T23:38:32.682336", "MEAN_MOTION": 14.05705537, "ECCENTRICITY": 0.00064715, "INCLINATION": 50.0036, "RA_OF_ASC_NODE": 116.2507, "ARG_OF_PERICENTER": 281.0953, "MEAN_ANOMALY": 78.9225, "EPHEMERIS_TYPE": 0, "CLASSIFICATION_TYPE": "U", "NORAD_CAT_ID": 66918, "ELEMENT_SET_NO": 999, "REV_AT_EPOCH": 94, "BSTAR": 0.0001916341, "MEAN_MOTION_DOT": 1.62e-06, "MEAN_MOTION_DDOT": 0}, "tle": {"line1": "1 66918U 25285D   25346.98510049  .00000162  00000+0  19163-3 0  9999", "line2": "2 66918  50.0036 116.2507 0006471 281.0953  78.9225 14.05705537   947"}}, "geometry": {"type": "Point", "coordinates": [-109.92143977842282, 39.32743663323384]}}, {"type": "Feature", "properties": {"norad_id": 66919, "name": "HULIANWANG DIGUI-109", "group": "last-30-days", "lat": 39.10926261782614, "lon": -109.49417900656881, "alt_km": 874.2903121674799, "timestamp": "2025-12-13T15:35:10.878847+00:00", "meta": {"OBJECT_NAME": "HULIANWANG DIGUI-109", "OBJECT_ID": "2025-285E", "EPOCH": "2025-12-12T23:38:26.407104", "MEAN_MOTION": 14.05716691, "ECCENTRICITY": 0.00078658, "INCLINATION": 50.0064, "RA_OF_ASC_NODE": 116.2539, "ARG_OF_PERICENTER": 292.5469, "MEAN_ANOMALY": 67.4603, "EPHEMERIS_TYPE": 0, "CLASSIFICATION_TYPE": "U", "NORAD_CAT_ID": 66919, "ELEMENT_SET_NO": 999, "REV_AT_EPOCH": 94, "BSTAR": -4.51821e-07, "MEAN_MOTION_DOT": -1.53e-06, "MEAN_MOTION_DDOT": 0}, "tle": {"line1": "1 66919U 25285E   25346.98502786 -.00000153  00000+0 -45182-6 0  9994", "line2": "2 66919  50.0064 116.2539 0007865 292.5469  67.4603 14.05716691   947"}}, "geometry": {"type": "Point", "coordinates": [-109.49417900656881, 39.10926261782614]}}, {"type": "Feature", "properties": {"norad_id": 66920, "name": "HULIANWANG DIGUI-110", "group": "last-30-days", "lat": 37.11109269509785, "lon": -105.88745374942154, "alt_km": 872.5684939274615, "timestamp": "2025-12-13T15:35:10.878859+00:00", "meta": {"OBJECT_NAME": "HULIANWANG DIGUI-110", "OBJECT_ID": "2025-285F", "EPOCH": "2025-12-12T23:37:33.037824", "MEAN_MOTION": 14.05851365, "ECCENTRICITY": 0.00058308, "INCLINATION": 50.0094, "RA_OF_ASC_NODE": 116.2544, "ARG_OF_PERICENTER": 289.3694, "MEAN_ANOMALY": 70.6581, "EPHEMERIS_TYPE": 0, "CLASSIFICATION_TYPE": "U", "NORAD_CAT_ID": 66920, "ELEMENT_SET_NO": 999, "REV_AT_EPOCH": 94, "BSTAR": 0.00018273329, "MEAN_MOTION_DOT": 1.48e-06, "MEAN_MOTION_DDOT": 0}, "tle": {"line1": "1 66920U 25285F   25346.98441016  .00000148  00000+0  18273-3 0  9994", "line2": "2 66920  50.0094 116.2544 0005830 289.3694  70.6581 14.05851365   941"}}, "geometry": {"type": "Point", "coordinates": [-105.88745374942154, 37.11109269509785]}}, {"type": "Feature", "properties": {"norad_id": 66921, "name": "HULIANWANG DIGUI-111", "group": "last-30-days", "lat": 36.57902949325255, "lon": -104.9874421378286, "alt_km": 873.454973068775, "timestamp": "2025-12-13T15:35:10.878869+00:00", "meta": {"OBJECT_NAME": "HULIANWANG DIGUI-111", "OBJECT_ID": "2025-285G", "EPOCH": "2025-12-12T23:37:19.072128", "MEAN_MOTION": 14.05885022, "ECCENTRICITY": 0.00069843, "INCLINATION": 50.0109, "RA_OF_ASC_NODE": 116.2557, "ARG_OF_PERICENTER": 295.898, "MEAN_ANOMALY": 64.1205, "EPHEMERIS_TYPE": 0, "CLASSIFICATION_TYPE": "U", "NORAD_CAT_ID": 66921, "ELEMENT_SET_NO": 999, "REV_AT_EPOCH": 94, "BSTAR": 0.00018406097, "MEAN_MOTION_DOT": 1.51e-06, "MEAN_MOTION_DDOT": 0}, "tle": {"line1": "1 66921U 25285G   25346.98424852  .00000151  00000+0  18406-3 0  9996", "line2": "2 66921  50.0109 116.2557 0006984 295.8980  64.1205 14.05885022   942"}}, "geometry": {"type": "Point", "coordinates": [-104.9874421378286, 36.57902949325255]}}, {"type": "Feature", "properties": {"norad_id": 66922, "name": "HULIANWANG DIGUI-112", "group": "last-30-days", "lat": 34.73536881261689, "lon": -102.0634578166672, "alt_km": 873.3593759588493, "timestamp": "2025-12-13T15:35:10.878879+00:00", "meta": {"OBJECT_NAME": "HULIANWANG DIGUI-112", "OBJECT_ID": "2025-285H", "EPOCH": "2025-12-12T21:54:11.608704", "MEAN_MOTION": 14.06000264, "ECCENTRICITY": 0.00069381, "INCLINATION": 50.0083, "RA_OF_ASC_NODE": 116.539, "ARG_OF_PERICENTER": 301.8744, "MEAN_ANOMALY": 58.1486, "EPHEMERIS_TYPE": 0, "CLASSIFICATION_TYPE": "U", "NORAD_CAT_ID": 66922, "ELEMENT_SET_NO": 999, "REV_AT_EPOCH": 93, "BSTAR": 2.241994e-06, "MEAN_MOTION_DOT": -1.49e-06, "MEAN_MOTION_DDOT": 0}, "tle": {"line1": "1 66922U 25285H   25346.91263436 -.00000149  00000+0  22420-5 0  9990", "line2": "2 66922  50.0083 116.5390 0006938 301.8744  58.1486 14.06000264   938"}}, "geometry": {"type": "Point", "coordinates": [-102.0634578166672, 34.73536881261689]}}, {"type": "Feature", "properties": {"norad_id": 66923, "name": "HULIANWANG DIGUI-113", "group": "last-30-days", "lat": 33.774434805039704, "lon": -100.62637846344563, "alt_km": 872.1308596830577, "timestamp": "2025-12-13T15:35:10.878888+00:00", "meta": {"OBJECT_NAME": "HULIANWANG DIGUI-113", "OBJECT_ID": "2025-285J", "EPOCH": "2025-12-12T21:53:48.246144", "MEAN_MOTION": 14.06056501, "ECCENTRICITY": 0.00054079, "INCLINATION": 50.0081, "RA_OF_ASC_NODE": 116.5386, "ARG_OF_PERICENTER": 296.8506, "MEAN_ANOMALY": 63.1846, "EPHEMERIS_TYPE": 0, "CLASSIFICATION_TYPE": "U", "NORAD_CAT_ID": 66923, "ELEMENT_SET_NO": 999, "REV_AT_EPOCH": 93, "BSTAR": 0.00018439421, "MEAN_MOTION_DOT": 1.52e-06, "MEAN_MOTION_DDOT": 0}, "tle": {"line1": "1 66923U 25285J   25346.91236396  .00000152  00000+0  18439-3 0  9992", "line2": "2 66923  50.0081 116.5386 0005407 296.8506  63.1846 14.06056501   932"}}, "geometry": {"type": "Point", "coordinates": [-100.62637846344563, 33.774434805039704]}}, {"type": "Feature", "properties": {"norad_id": 66924, "name": "CZ-8A R/B", "group": "last-30-days", "lat": 37.45396914333211, "lon": 152.30127683646606, "alt_km": 738.0153506910492, "timestamp": "2025-12-13T15:35:10.878898+00:00", "meta": {"OBJECT_NAME": "CZ-8A R/B", "OBJECT_ID": "2025-285K", "EPOCH": "2025-12-12T20:54:00.305568", "MEAN_MOTION": 14.30501963, "ECCENTRICITY": 0.0119323, "INCLINATION": 50.0065, "RA_OF_ASC_NODE": 115.5964, "ARG_OF_PERICENTER": 107.1996, "MEAN_ANOMALY": 254.2022, "EPHEMERIS_TYPE": 0, "CLASSIFICATION_TYPE": "U", "NORAD_CAT_ID": 66924, "ELEMENT_SET_NO": 999, "REV_AT_EPOCH": 94, "BSTAR": 9.3987023e-05, "MEAN_MOTION_DOT": 9.9e-07, "MEAN_MOTION_DDOT": 0}, "tle": {"line1": "1 66924U 25285K   25346.87083687  .00000099  00000+0  93987-4 0  9993", "line2": "2 66924  50.0065 115.5964 0119323 107.1996 254.2022 14.30501963   940"}}, "geometry": {"type": "Point", "coordinates": [152.30127683646606, 37.45396914333211]}}]}